SL-14 R/B               
1 16496U 86006B   26066.63600680  .00000877  00000+0  90854-4 0  9996
2 16496  82.5234 261.6707 0075080 279.7520  79.5224 14.86812011148906
COSMOS 1743             
1 16719U 86034A   26066.52319524  .00049929  00000+0  65402-3 0  9998
2 16719  82.5293  76.1042 0001776 312.9052  47.2054 15.58380737179914
SL-14 R/B               
1 16792U 86046B   26066.51725374  .00000670  00000+0  74378-4 0  9998
2 16792  82.4782  82.2350 0021839 232.9238 126.9982 14.85588210126086
SL-14 R/B               
1 16882U 86055B   26066.65743646  .00000620  00000+0  68666-4 0  9993
2 16882  82.5205 128.5844 0018351 343.4986 130.3197 14.85640787119067
AJISAI (EGS)            
1 16908U 86061A   26066.63698045 -.00000090  00000+0  54288-4 0  9996
2 16908  50.0080  99.6602 0011257 281.7221 190.0520 12.44515665467744
SL-14 R/B               
1 17567U 87024B   26066.55144808  .00000616  00000+0  67386-4 0  9998
2 17567  82.5249  94.7740 0016677 267.6902  92.2405 14.86129812 87816
COSMOS 1833             
1 17589U 87027A   26066.17027101 -.00000148  00000+0 -53372-4 0  9991
2 17589  70.9229 331.3137 0024392 218.0534 141.8865 14.13055413  9969
SL-16 R/B               
1 17590U 87027B   26066.64533544 -.00000036  00000+0  58127-5 0  9997
2 17590  71.0011 280.8036 0003544 147.1364 212.9981 14.17165791 15058
SL-14 R/B               
1 17912U 87038B   26066.61268742  .00000582  00000+0  64633-4 0  9992
2 17912  82.5004 298.7647 0019507 167.1109 193.0610 14.85367354 78923
COSMOS 1844             
1 17973U 87041A   26066.34954668 -.00000119  00000+0 -36665-4 0  9994
2 17973  70.8997  39.1107 0029869  21.2759 338.9597 14.14552801  3255
SL-14 R/B               
1 18153U 87055B   26066.25322061  .00000828  00000+0  92474-4 0  9991
2 18153  82.5030 351.3269 0021362  25.6858 334.5414 14.85626321 69574
COSMOS 1867             
1 18187U 87060A   26066.62487063 -.00000007  00000+0  34953-4 0  9997
2 18187  65.0116 312.4881 0014463 278.5344  81.4101 14.31502721 19645
SL-14 R/B               
1 18749U 88001B   26066.45042472  .00000880  00000+0  98913-4 0  9993
2 18749  82.5149 197.4656 0016713 243.6635 116.2865 14.85525107 41692
COSMOS 1933             
1 18958U 88020A   26066.54885742  .00005565  00000+0  27263-3 0  9995
2 18958  82.5097 253.0303 0003641 189.1397 170.9771 15.17958526 49905
SL-3 R/B                
1 19046U 88032B   26066.55996753  .00008103  00000+0  37775-3 0  9993
2 19046  97.5195  49.8182 0024319 239.4123 120.4713 15.19879607 51785
SL-16 R/B               
1 19120U 88039B   26066.44364943 -.00000152  00000+0 -49009-4 0  9993
2 19120  71.0131  73.2971 0022658 337.6254  22.3880 14.19615516958060
COSMOS 1953             
1 19210U 88050A   26066.33433726  .00013017  00000+0  46734-3 0  9993
2 19210  82.5103 160.6148 0012442 130.1292 230.1039 15.28476467 37425
