[{"OBJECT_NAME":"SL-14 R/B","OBJECT_ID":"1986-006B","EPOCH":"2026-03-07T15:15:50.987520","MEAN_MOTION":14.86812011,"ECCENTRICITY":0.00750805,"INCLINATION":82.5234,"RA_OF_ASC_NODE":261.6707,"ARG_OF_PERICENTER":279.752,"MEAN_ANOMALY":79.5224,"EPHEMERIS_TYPE":0,"CLASSIFICATION_TYPE":"U","NORAD_CAT_ID":16496,"ELEMENT_SET_NO":999,"REV_AT_EPOCH":14890,"BSTAR":9.085356e-5,"MEAN_MOTION_DOT":8.77e-6,"MEAN_MOTION_DDOT":0},{"OBJECT_NAME":"COSMOS 1743","OBJECT_ID":"1986-034A","EPOCH":"2026-03-07T12:33:24.068736","MEAN_MOTION":15.58380737,"ECCENTRICITY":0.00017767,"INCLINATION":82.5293,"RA_OF_ASC_NODE":76.1042,"ARG_OF_PERICENTER":312.9052,"MEAN_ANOMALY":47.2054,"EPHEMERIS_TYPE":0,"CLASSIFICATION_TYPE":"U","NORAD_CAT_ID":16719,"ELEMENT_SET_NO":999,"REV_AT_EPOCH":17991,"BSTAR":0.00065401851,"MEAN_MOTION_DOT":0.00049929,"MEAN_MOTION_DDOT":0},{"OBJECT_NAME":"SL-14 R/B","OBJECT_ID":"1986-046B","EPOCH":"2026-03-07T12:24:50.723136","MEAN_MOTION":14.8558821,"ECCENTRICITY":0.00218393,"INCLINATION":82.4782,"RA_OF_ASC_NODE":82.235,"ARG_OF_PERICENTER":232.9238,"MEAN_ANOMALY":126.9982,"EPHEMERIS_TYPE":0,"CLASSIFICATION_TYPE":"U","NORAD_CAT_ID":16792,"ELEMENT_SET_NO":999,"REV_AT_EPOCH":12608,"BSTAR":7.4377585e-5,"MEAN_MOTION_DOT":6.7e-6,"MEAN_MOTION_DDOT":0},{"OBJECT_NAME":"SL-14 R/B","OBJECT_ID":"1986-055B","EPOCH":"2026-03-07T15:46:42.510144","MEAN_MOTION":14.85640787,"ECCENTRICITY":0.00183515,"INCLINATION":82.5205,"RA_OF_ASC_NODE":128.5844,"ARG_OF_PERICENTER":343.4986,"MEAN_ANOMALY":130.3197,"EPHEMERIS_TYPE":0,"CLASSIFICATION_TYPE":"U","NORAD_CAT_ID":16882,"ELEMENT_SET_NO":999,"REV_AT_EPOCH":11906,"BSTAR":6.8666432e-5,"MEAN_MOTION_DOT":6.2e-6,"MEAN_MOTION_DDOT":0},{"OBJECT_NAME":"AJISAI (EGS)","OBJECT_ID":"1986-061A","EPOCH":"2026-03-07T15:17:15.110880","MEAN_MOTION":12.44515665,"ECCENTRICITY":0.00112571,"INCLINATION":50.008,"RA_OF_ASC_NODE":99.6602,"ARG_OF_PERICENTER":281.7221,"MEAN_ANOMALY":190.052,"EPHEMERIS_TYPE":0,"CLASSIFICATION_TYPE":"U","NORAD_CAT_ID":16908,"ELEMENT_SET_NO":999,"REV_AT_EPOCH":46774,"BSTAR":5.4288457e-5,"MEAN_MOTION_DOT":-9.0e-7,"MEAN_MOTION_DDOT":0},{"OBJECT_NAME":"SL-14 R/B","OBJECT_ID":"1987-024B","EPOCH":"2026-03-07T13:14:05.114112","MEAN_MOTION":14.86129812,"ECCENTRICITY":0.0016677,"INCLINATION":82.5249,"RA_OF_ASC_NODE":94.774,"ARG_OF_PERICENTER":267.6902,"MEAN_ANOMALY":92.2405,"EPHEMERIS_TYPE":0,"CLASSIFICATION_TYPE":"U","NORAD_CAT_ID":17567,"ELEMENT_SET_NO":999,"REV_AT_EPOCH":8781,"BSTAR":6.7386233e-5,"MEAN_MOTION_DOT":6.16e-6,"MEAN_MOTION_DDOT":0},{"OBJECT_NAME":"COSMOS 1833","OBJECT_ID":"1987-027A","EPOCH":"2026-03-07T04:05:11.415264","MEAN_MOTION":14.13055413,"ECCENTRICITY":0.00243924,"INCLINATION":70.9229,"RA_OF_ASC_NODE":331.3137,"ARG_OF_PERICENTER":218.0534,"MEAN_ANOMALY":141.8865,"EPHEMERIS_TYPE":0,"CLASSIFICATION_TYPE":"U","NORAD_CAT_ID":17589,"ELEMENT_SET_NO":999,"REV_AT_EPOCH":996,"BSTAR":-5.3371697e-5,"MEAN_MOTION_DOT":-1.48e-6,"MEAN_MOTION_DDOT":0},{"OBJECT_NAME":"SL-16 R/B","OBJECT_ID":"1987-027B","EPOCH":"2026-03-07T15:29:16.982016","MEAN_MOTION":14.17165791,"ECCENTRICITY":0.00035447,"INCLINATION":71.0011,"RA_OF_ASC_NODE":280.8036,"ARG_OF_PERICENTER":147.1364,"MEAN_ANOMALY":212.9981,"EPHEMERIS_TYPE":0,"CLASSIFICATION_TYPE":"U","NORAD_CAT_ID":17590,"ELEMENT_SET_NO":999,"REV_AT_EPOCH":1505,"BSTAR":5.812687e-6,"MEAN_MOTION_DOT":-3.6e-7,"MEAN_MOTION_DDOT":0},{"OBJECT_NAME":"SL-14 R/B","OBJECT_ID":"1987-038B","EPOCH":"2026-03-07T14:42:16.193088","MEAN_MOTION":14.85367354,"ECCENTRICITY":0.00195078,"INCLINATION":82.5004,"RA_OF_ASC_NODE":298.7647,"ARG_OF_PERICENTER":167.1109,"MEAN_ANOMALY":193.061,"EPHEMERIS_TYPE":0,"CLASSIFICATION_TYPE":"U","NORAD_CAT_ID":17912,"ELEMENT_SET_NO":999,"REV_AT_EPOCH":7892,"BSTAR":6.4632821e-5,"MEAN_MOTION_DOT":5.82e-6,"MEAN_MOTION_DDOT":0},{"OBJECT_NAME":"COSMOS 1844","OBJECT_ID":"1987-041A","EPOCH":"2026-03-07T08:23:20.833152","MEAN_MOTION":14.14552801,"ECCENTRICITY":0.00298696,"INCLINATION":70.8997,"RA_OF_ASC_NODE":39.1107,"ARG_OF_PERICENTER":21.2759,"MEAN_ANOMALY":338.9597,"EPHEMERIS_TYPE":0,"CLASSIFICATION_TYPE":"U","NORAD_CAT_ID":17973,"ELEMENT_SET_NO":999,"REV_AT_EPOCH":325,"BSTAR":-3.6665316e-5,"MEAN_MOTION_DOT":-1.19e-6,"MEAN_MOTION_DDOT":0},{"OBJECT_NAME":"SL-14 R/B","OBJECT_ID":"1987-055B","EPOCH":"2026-03-07T06:04:38.260704","MEAN_MOTION":14.85626321,"ECCENTRICITY":0.0021362,"INCLINATION":82.503,"RA_OF_ASC_NODE":351.3269,"ARG_OF_PERICENTER":25.6858,"MEAN_ANOMALY":334.5414,"EPHEMERIS_TYPE":0,"CLASSIFICATION_TYPE":"U","NORAD_CAT_ID":18153,"ELEMENT_SET_NO":999,"REV_AT_EPOCH":6957,"BSTAR":9.2474e-5,"MEAN_MOTION_DOT":8.28e-6,"MEAN_MOTION_DDOT":0},{"OBJECT_NAME":"COSMOS 1867","OBJECT_ID":"1987-060A","EPOCH":"2026-03-07T14:59:48.822432","MEAN_MOTION":14.31502721,"ECCENTRICITY":0.0014463,"INCLINATION":65.0116,"RA_OF_ASC_NODE":312.4881,"ARG_OF_PERICENTER":278.5344,"MEAN_ANOMALY":81.4101,"EPHEMERIS_TYPE":0,"CLASSIFICATION_TYPE":"U","NORAD_CAT_ID":18187,"ELEMENT_SET_NO":999,"REV_AT_EPOCH":1964,"BSTAR":3.4953413e-5,"MEAN_MOTION_DOT":-7.0e-8,"MEAN_MOTION_DDOT":0},{"OBJECT_NAME":"SL-14 R/B","OBJECT_ID":"1988-001B","EPOCH":"2026-03-07T10:48:36.695808","MEAN_MOTION":14.85525107,"ECCENTRICITY":0.00167132,"INCLINATION":82.5149,"RA_OF_ASC_NODE":197.4656,"ARG_OF_PERICENTER":243.6635,"MEAN_ANOMALY":116.2865,"EPHEMERIS_TYPE":0,"CLASSIFICATION_TYPE":"U","NORAD_CAT_ID":18749,"ELEMENT_SET_NO":999,"REV_AT_EPOCH":4169,"BSTAR":9.8913472e-5,"MEAN_MOTION_DOT":8.8e-6,"MEAN_MOTION_DDOT":0},{"OBJECT_NAME":"COSMOS 1933","OBJECT_ID":"1988-020A","EPOCH":"2026-03-07T13:10:21.281088","MEAN_MOTION":15.17958526,"ECCENTRICITY":0.00036412,"INCLINATION":82.5097,"RA_OF_ASC_NODE":253.0303,"ARG_OF_PERICENTER":189.1397,"MEAN_ANOMALY":170.9771,"EPHEMERIS_TYPE":0,"CLASSIFICATION_TYPE":"U","NORAD_CAT_ID":18958,"ELEMENT_SET_NO":999,"REV_AT_EPOCH":4990,"BSTAR":0.00027263376,"MEAN_MOTION_DOT":5.565e-5,"MEAN_MOTION_DDOT":0},{"OBJECT_NAME":"SL-3 R/B","OBJECT_ID":"1988-032B","EPOCH":"2026-03-07T13:26:21.194592","MEAN_MOTION":15.19879607,"ECCENTRICITY":0.0024319,"INCLINATION":97.5195,"RA_OF_ASC_NODE":49.8182,"ARG_OF_PERICENTER":239.4123,"MEAN_ANOMALY":120.4713,"EPHEMERIS_TYPE":0,"CLASSIFICATION_TYPE":"U","NORAD_CAT_ID":19046,"ELEMENT_SET_NO":999,"REV_AT_EPOCH":5178,"BSTAR":0.00037774944,"MEAN_MOTION_DOT":8.103e-5,"MEAN_MOTION_DDOT":0},{"OBJECT_NAME":"SL-16 R/B","OBJECT_ID":"1988-039B","EPOCH":"2026-03-07T10:38:51.310752","MEAN_MOTION":14.19615516,"ECCENTRICITY":0.00226582,"INCLINATION":71.0131,"RA_OF_ASC_NODE":73.2971,"ARG_OF_PERICENTER":337.6254,"MEAN_ANOMALY":22.388,"EPHEMERIS_TYPE":0,"CLASSIFICATION_TYPE":"U","NORAD_CAT_ID":19120,"ELEMENT_SET_NO":999,"REV_AT_EPOCH":95806,"BSTAR":-4.9009401e-5,"MEAN_MOTION_DOT":-1.52e-6,"MEAN_MOTION_DDOT":0},{"OBJECT_NAME":"COSMOS 1953","OBJECT_ID":"1988-050A","EPOCH":"2026-03-07T08:01:26.739264","MEAN_MOTION":15.28476467,"ECCENTRICITY":0.0012442,"INCLINATION":82.5103,"RA_OF_ASC_NODE":160.6148,"ARG_OF_PERICENTER":130.1292,"MEAN_ANOMALY":230.1039,"EPHEMERIS_TYPE":0,"CLASSIFICATION_TYPE":"U","NORAD_CAT_ID":19210,"ELEMENT_SET_NO":999,"REV_AT_EPOCH":3742,"BSTAR":0.00046734,"MEAN_MOTION_DOT":0.00013017,"MEAN_MOTION_DDOT":0}]
